NORAD_CAT_ID,OBJECT_NAME,OBJECT_TYPE,EPOCH,MEAN_MOTION,ECCENTRICITY,INCLINATION,RA_OF_ASC_NODE,ARG_OF_PERICENTER,MEAN_ANOMALY,BSTAR,MEAN_MOTION_DOT,MEAN_MOTION_DDOT,TLE_LINE0,TLE_LINE1,TLE_LINE2,SEMIMAJOR_AXIS,PERIOD,APOGEE,PERIGEE,DECAYED
49768.0,STARLINK-3196,PAYLOAD,2022-06-14 09:08:22,15.08841203,0.0002446,53.2177,143.745,51.4248,308.6963,0.00014864,2.078e-05,0.0,0 STARLINK-3196,1 49768U 21115AW  22165.38081355  .00002078  00000-0  14864-3 0  9996,2 49768  53.2177 143.7450 0002446  51.4248 308.6963 15.08841203 29711,6917.877,95.437,541.434,538.05,0.0
49768.0,STARLINK-3196,PAYLOAD,2022-06-14 20:16:01,15.08922086,0.0003077,53.2174,141.6634,44.4722,315.6517,-0.00097939,-0.00015878,0.0,0 STARLINK-3196,1 49768U 21115AW  22165.84445883 -.00015878  00000-0 -97939-3 0  9995,2 49768  53.2174 141.6634 0003077  44.4722 315.6517 15.08922086 29788,6917.629,95.432,541.623,537.366,0.0
49768.0,STARLINK-3196,PAYLOAD,2022-06-15 07:23:45,15.08852732,0.0002312,53.2166,139.5819,55.3903,304.7307,0.0002407,3.546e-05,0.0,0 STARLINK-3196,1 49768U 21115AW  22166.30816783  .00003546  00000-0  24070-3 0  9991,2 49768  53.2166 139.5819 0002312  55.3903 304.7307 15.08852732 30961,6917.840999999999,95.437,541.306,538.107,0.0
49768.0,STARLINK-3196,PAYLOAD,2022-06-15 15:20:41,15.08843298,0.0002314,53.2165,138.0951,55.3034,304.8176,2.5828e-05,1.23e-06,0.0,0 STARLINK-3196,1 49768U 21115AW  22166.63937039  .00000123  00000-0  25828-4 0  9996,2 49768  53.2165 138.0951 0002314  55.3034 304.8176 15.08843298 31017,6917.87,95.437,541.336,538.135,0.0
49768.0,STARLINK-3196,PAYLOAD,2022-06-19 08:22:16,15.08844056,0.0002398,53.2169,121.4444,52.7833,307.3378,0.00024909,3.679e-05,0.0,0 STARLINK-3196,1 49768U 21115AW  22170.34880524  .00003679  00000-0  24909-3 0  9992,2 49768  53.2169 121.4444 0002398  52.7833 307.3378 15.08844056 30467,6917.868,95.437,541.3919999999998,538.0740000000002,0.0
49768.0,STARLINK-3196,PAYLOAD,2022-06-19 21:05:21,15.08844108,0.0002551,53.2174,119.0646,56.1966,303.9269,0.00020939,3.046e-05,0.0,0 STARLINK-3196,1 49768U 21115AW  22170.87872390  .00003046  00000-0  20939-3 0  9999,2 49768  53.2174 119.0646 0002551  56.1966 303.9269 15.08844108 30544,6917.868,95.437,541.498,537.9680000000002,0.0
49768.0,STARLINK-3196,PAYLOAD,2022-06-19 21:05:22,15.08834368,0.0002428,53.2161,119.0654,54.4321,305.7427,0.0,-2.88e-06,0.0,0 STARLINK-3196,1 49768U 21115AW  22170.87873328 -.00000288  00000-0  00000+0 0  9990,2 49768  53.2161 119.0654 0002428  54.4321 305.7427 15.08834368 31654,6917.898,95.438,541.442,538.0830000000002,0.0
49768.0,STARLINK-3196,PAYLOAD,2022-06-20 03:26:54,15.08850361,0.0002153,53.2175,117.8754,57.9697,302.1504,0.00025928,3.842e-05,0.0,0 STARLINK-3196,1 49768U 21115AW  22171.14368113  .00003842  00000-0  25928-3 0  9990,2 49768  53.2175 117.8754 0002153  57.9697 302.1504 15.08850361 31686,6917.849,95.437,541.203,538.224,0.0
49768.0,STARLINK-3196,PAYLOAD,2022-06-20 12:59:13,15.08840317,0.0002102,53.2173,116.0916,52.8648,307.2536,4.7184e-05,4.63e-06,0.0,0 STARLINK-3196,1 49768U 21115AW  22171.54112414  .00000463  00000-0  47184-4 0  9990,2 49768  53.2173 116.0916 0002102  52.8648 307.2536 15.08840317 30645,6917.879,95.438,541.1990000000002,538.29,0.0
49768.0,STARLINK-3196,PAYLOAD,2022-06-21 08:03:50,15.08853667,0.0001993,53.2171,112.5231,54.6544,305.4634,0.00047829,7.335e-05,0.0,0 STARLINK-3196,1 49768U 21115AW  22172.33599960  .00007335  00000-0  47829-3 0  9993,2 49768  53.2171 112.5231 0001993  54.6544 305.4634 15.08853667 31862,6917.839,95.437,541.082,538.325,0.0
49768.0,STARLINK-3196,PAYLOAD,2022-06-21 19:11:32,15.08841843,0.000215,53.2175,110.4416,61.4491,298.6718,0.00012455,1.695e-05,0.0,0 STARLINK-3196,1 49768U 21115AW  22172.79968274  .00001695  00000-0  12455-3 0  9991,2 49768  53.2175 110.4416 0002150  61.4491 298.6718 15.08841843 31949,6917.875,95.437,541.227,538.252,0.0
49768.0,STARLINK-3196,PAYLOAD,2022-06-22 12:40:47,15.08831382,0.000209,53.217,107.1703,61.7359,298.3843,-0.00011013,-2.04e-05,0.0,0 STARLINK-3196,1 49768U 21115AW  22173.52832677 -.00002040  00000-0 -11013-3 0  9996,2 49768  53.2170 107.1703 0002090  61.7359 298.3843 15.08831382 32051,6917.906999999997,95.438,541.2180000000002,538.326,0.0
49768.0,STARLINK-3196,PAYLOAD,2022-06-23 02:59:15,15.08840698,0.0002098,53.2179,104.4954,62.8265,297.2941,9.7009e-05,1.256e-05,0.0,0 STARLINK-3196,1 49768U 21115AW  22174.12448531  .00001256  00000-0  97009-4 0  9991,2 49768  53.2179 104.4954 0002098  62.8265 297.2941 15.08840698 32141,6917.878000000002,95.438,541.195,538.2919999999998,0.0
49768.0,STARLINK-3196,PAYLOAD,2022-06-23 12:31:34,15.08847618,0.000203,53.2179,102.7105,60.1006,300.0187,0.00015369,2.159e-05,0.0,0 STARLINK-3196,1 49768U 21115AW  22174.52192171  .00002159  00000-0  15369-3 0  9992,2 49768  53.2179 102.7105 0002030  60.1006 300.0187 15.08847618 31097,6917.857,95.437,541.126,538.318,0.0
49768.0,STARLINK-3196,PAYLOAD,2022-06-24 04:25:25,15.08839604,0.000202,53.2179,99.7363,64.1654,295.9546,0.00011822,1.594e-05,0.0,0 STARLINK-3196,1 49768U 21115AW  22175.18432793  .00001594  00000-0  11822-3 0  9994,2 49768  53.2179  99.7363 0002020  64.1654 295.9546 15.08839604 32302,6917.882,95.438,541.144,538.349,0.0
49768.0,STARLINK-3196,PAYLOAD,2022-06-24 12:22:21,15.08842115,0.0001967,53.218,98.2497,58.6023,301.5162,0.00021555,3.144e-05,0.0,0 STARLINK-3196,1 49768U 21115AW  22175.51552687  .00003144  00000-0  21555-3 0  9993,2 49768  53.2180  98.2497 0001967  58.6023 301.5162 15.08842115 31244,6917.874,95.437,541.1,538.378,0.0
49768.0,STARLINK-3196,PAYLOAD,2022-06-25 02:40:50,15.0883475,0.0002032,53.2183,95.5737,61.4216,298.698,-1.1214e-05,-4.67e-06,0.0,0 STARLINK-3196,1 49768U 21115AW  22176.11169280 -.00000467  00000-0 -11214-4 0  9992,2 49768  53.2183  95.5737 0002032  61.4216 298.6980 15.08834750 32447,6917.896,95.438,541.1669999999998,538.356,0.0
49768.0,STARLINK-3196,PAYLOAD,2022-06-25 12:13:08,15.08840378,0.0002023,53.2192,93.7899,61.5967,298.5229,5.6893e-05,6.17e-06,0.0,0 STARLINK-3196,1 49768U 21115AW  22176.50913157  .00000617  00000-0  56893-4 0  9992,2 49768  53.2192  93.7899 0002023  61.5967 298.5229 15.08840378 31391,6917.879,95.438,541.144,538.345,0.0
49768.0,STARLINK-3196,PAYLOAD,2022-06-25 21:45:27,15.08845489,0.0001963,53.2191,92.0057,62.8276,297.2916,0.00017586,2.512e-05,0.0,0 STARLINK-3196,1 49768U 21115AW  22176.90656555  .00002512  00000-0  17586-3 0  9993,2 49768  53.2191  92.0057 0001963  62.8276 297.2916 15.08845489 31451,6917.864000000001,95.437,541.087,538.371,0.0
49768.0,STARLINK-3196,PAYLOAD,2022-06-26 05:42:22,15.0885619,0.0001944,53.2182,90.5184,59.7272,300.3913,0.00035951,5.441e-05,0.0,0 STARLINK-3196,1 49768U 21115AW  22177.23776358  .00005441  00000-0  35951-3 0  9994,2 49768  53.2182  90.5184 0001944  59.7272 300.3913 15.08856190 32618,6917.831,95.437,541.0409999999998,538.351,0.0
49768.0,STARLINK-3196,PAYLOAD,2022-06-26 20:00:50,15.08854931,0.0001957,53.2183,87.8424,60.826,299.2928,0.00034889,5.271e-05,0.0,0 STARLINK-3196,1 49768U 21115AW  22177.83392158  .00005271  00000-0  34889-3 0  9992,2 49768  53.2183  87.8424 0001957  60.8260 299.2928 15.08854931 32702,6917.835,95.437,541.054,538.346,0.0
49768.0,STARLINK-3196,PAYLOAD,2022-06-26 21:36:13,15.0885518,0.0001948,53.2183,87.545,60.8715,299.2472,0.00033763,5.092e-05,0.0,0 STARLINK-3196,1 49768U 21115AW  22177.90016108  .00005092  00000-0  33763-3 0  9999,2 49768  53.2183  87.5450 0001948  60.8715 299.2472 15.08855180 31602,6917.834,95.437,541.047,538.351,0.0
49768.0,STARLINK-3196,PAYLOAD,2022-06-27 02:22:23,15.08839826,0.0001915,53.2183,86.65299999999998,58.0738,302.0440000000001,-1.7662e-05,-5.69e-06,0.0,0 STARLINK-3196,1 49768U 21115AW  22178.09888575 -.00000569  00000-0 -17662-4 0  9992,2 49768  53.2183  86.6530 0001915  58.0738 302.0440 15.08839826 32742,6917.880999999999,95.438,541.071,538.4209999999998,0.0
49768.0,STARLINK-3196,PAYLOAD,2022-06-27 05:33:10,15.08837748,0.0001896,53.2183,86.0585,57.8507,302.2669,3.0511e-05,1.97e-06,0.0,0 STARLINK-3196,1 49768U 21115AW  22178.23136767  .00000197  00000-0  30511-4 0  9990,2 49768  53.2183  86.0585 0001896  57.8507 302.2669 15.08837748 31650,6917.887,95.438,541.064,538.441,0.0
49768.0,STARLINK-3196,PAYLOAD,2022-06-27 21:27:01,15.08834443,0.0001893,53.2184,83.0851,58.9217,301.1961,-0.00010582,-1.972e-05,0.0,0 STARLINK-3196,1 49768U 21115AW  22178.89376907 -.00001972  00000-0 -10582-3 0  9993,2 49768  53.2184  83.0851 0001893  58.9217 301.1961 15.08834443 31754,6917.897,95.438,541.072,538.453,0.0
49768.0,STARLINK-3196,PAYLOAD,2022-06-28 02:13:11,15.08833588,0.0001786,53.2188,82.1933,56.5721,303.5442,-0.00012744,-2.315e-05,0.0,0 STARLINK-3196,1 49768U 21115AW  22179.09249661 -.00002315  00000-0 -12744-3 0  9996,2 49768  53.2188  82.1933 0001786  56.5721 303.5442 15.08833588 32899,6917.9,95.438,541.001,538.529,0.0
49768.0,STARLINK-3196,PAYLOAD,2022-06-28 10:10:07,15.08835626,0.0001757,53.2187,80.7067,55.38399999999999,304.7318,-0.00012208,-2.23e-05,0.0,0 STARLINK-3196,1 49768U 21115AW  22179.42369567 -.00002230  00000-0 -12208-3 0  9992,2 49768  53.2187  80.7067 0001757  55.3840 304.7318 15.08835626 31830,6917.894,95.438,540.974,538.543,0.0
49768.0,STARLINK-3196,PAYLOAD,2022-06-28 21:17:49,15.08827268,0.000177,53.2189,78.6249,54.6431,305.4727,3.5526e-05,2.77e-06,0.0,0 STARLINK-3196,1 49768U 21115AW  22179.88737653  .00000277  00000-0  35526-4 0  9993,2 49768  53.2189  78.6249 0001770  54.6431 305.4727 15.08827268 31906,6917.919,95.438,541.009,538.56,0.0
49768.0,STARLINK-3196,PAYLOAD,2022-06-29 03:39:21,15.08830132,0.0001792,53.2189,77.4357,55.1612,304.9548,5.747100000000001e-05,6.26e-06,0.0,0 STARLINK-3196,1 49768U 21115AW  22180.15233617  .00000626  00000-0  57471-4 0  9997,2 49768  53.2189  77.4357 0001792  55.1612 304.9548 15.08830132 33051,6917.911,95.438,541.015,538.536,0.0
